GPS BIIR-2  (PRN 13)    
1 24876U 97035A   25210.12137250 -.00000018  00000+0  00000+0 0  9990
2 24876  55.8255 111.2141 0093374  55.1446 305.7748  2.00562616205471
GPS BIIR-4  (PRN 20)    
1 26360U 00025A   25210.23479878 -.00000088  00000+0  00000+0 0  9997
2 26360  54.9639  32.3549 0035754 232.7457 297.2375  2.00578168184796
GPS BIIR-5  (PRN 22)    
1 26407U 00040A   25210.22797395  .00000036  00000+0  00000+0 0  9994
2 26407  54.9287 227.9923 0132389 299.1110  67.9711  2.00566451183472
GPS BIIR-8  (PRN 16)    
1 27663U 03005A   25209.58719920  .00000031  00000+0  00000+0 0  9993
2 27663  54.9631 227.8279 0142821  50.3254 349.9054  2.00551978164820
GPS BIIR-11 (PRN 19)    
1 28190U 04009A   25210.31084834 -.00000061  00000+0  00000+0 0  9990
2 28190  55.1000 288.7164 0106878 163.3738 200.2715  2.00566088156475
GPS BIIR-13 (PRN 02)    
1 28474U 04045A   25209.70119726 -.00000108  00000+0  00000+0 0  9997
2 28474  55.3049 337.9157 0166179 304.8128  37.6221  2.00563364151933
GPS BIIRM-1 (PRN 17)    
1 28874U 05038A   25209.80476403 -.00000055  00000+0  00000+0 0  9994
2 28874  55.1452 286.2126 0133161 290.5248  91.0019  2.00557433145352
GPS BIIRM-2 (PRN 31)    
1 29486U 06042A   25208.94606542  .00000024  00000+0  00000+0 0  9998
2 29486  54.6874 164.2069 0104916  47.5910 335.5554  2.00560252137890
GPS BIIRM-3 (PRN 12)    
1 29601U 06052A   25209.34244688  .00000030  00000+0  00000+0 0  9999
2 29601  55.0060 226.8462 0084636  86.8071 274.1951  2.00565650136911
GPS BIIRM-4 (PRN 15)    
1 32260U 07047A   25210.14608595 -.00000038  00000+0  00000+0 0  9999
2 32260  53.8548  93.4020 0163145  82.4988 279.4164  2.00570236130333
GPS BIIRM-5 (PRN 29)    
1 32384U 07062A   25210.46913699 -.00000058  00000+0  00000+0 0  9994
2 32384  55.2927 287.1104 0032648 161.0317 200.7487  2.00570656129042
GPS BIIRM-6 (PRN 07)    
1 32711U 08012A   25210.06292853  .00000034  00000+0  00000+0 0  9995
2 32711  54.4669 162.8279 0200254 243.8341 114.0671  2.00559954127271
GPS BIIRM-8 (PRN 05)    
1 35752U 09043A   25209.33605091 -.00000079  00000+0  00000+0 0  9998
2 35752  55.9954  40.1971 0055701  80.0575 130.5200  2.00573530116864
GPS BIIF-1  (PRN 25)    
1 36585U 10022A   25207.13429671  .00000031  00000+0  00000+0 0  9993
2 36585  54.3324 221.6988 0120810  64.0874 117.6174  2.00571949111059
GPS BIIF-3  (PRN 24)    
1 38833U 12053A   25208.74602868  .00000016  00000+0  00000+0 0  9999
2 38833  53.5426 156.8888 0168412  61.3233 300.3249  2.00563528 92931
GPS BIIF-4  (PRN 27)    
1 39166U 13023A   25210.10584401 -.00000050  00000+0  00000+0 0  9991
2 39166  54.7620 282.1203 0132702  48.1634 313.0310  2.00565836 89407
GPS BIIF-5  (PRN 30)    
1 39533U 14008A   25209.60542227  .00000028  00000+0  00000+0 0  9990
2 39533  53.6195 162.5156 0078728 226.3454 132.9697  2.00566267 83190
GPS BIIF-6  (PRN 06)    
1 39741U 14026A   25210.38222404 -.00000106  00000+0  00000+0 0  9998
2 39741  56.6337 344.0773 0034800 318.6517  41.0891  2.00571179 82061
GPS BIIF-7  (PRN 09)    
1 40105U 14045A   25208.97685136 -.00000023  00000+0  00000+0 0  9990
2 40105  55.1399 101.3968 0031049 115.9626 244.4144  2.00563961 79572
GPS BIIF-8  (PRN 03)    
1 40294U 14068A   25208.84805486 -.00000074  00000+0  00000+0 0  9998
2 40294  56.7554  43.4755 0061971  68.3744 292.3345  2.00556465 78700
GPS BIIF-9  (PRN 26)    
1 40534U 15013A   25209.48297220  .00000035  00000+0  00000+0 0  9994
2 40534  53.2298 217.5683 0100007  35.4166 325.2589  2.00570764 75335
GPS BIIF-10 (PRN 08)    
1 40730U 15033A   25209.64541994 -.00000047  00000+0  00000+0 0  9996
2 40730  54.2420 280.4116 0104332  25.2272 335.3505  2.00572780 73508
GPS BIIF-11 (PRN 10)    
1 41019U 15062A   25209.70184119 -.00000076  00000+0  00000+0 0  9990
2 41019  56.7320  43.2985 0104618 227.8832 131.2681  2.00567086 71344
GPS BIIF-12 (PRN 32)    
1 41328U 16007A   25206.79229393 -.00000023  00000+0  00000+0 0  9995
2 41328  55.3197 102.4129 0087964 242.7932 116.3567  2.00567883 69296
GPS BIII-1  (PRN 04)    
1 43873U 18109A   25210.17626065 -.00000025  00000+0  00000+0 0  9993
2 43873  55.4862 104.9411 0034067 195.6806 341.2578  2.00572597 48595
GPS BIII-2  (PRN 18)    
1 44506U 19056A   25208.81423238 -.00000109  00000+0  00000+0 0  9997
2 44506  55.7708 344.0252 0054716 193.9830 337.3238  2.00562949 43563
GPS BIII-3  (PRN 23)    
1 45854U 20041A   25209.89824269 -.00000078  00000+0  00000+0 0  9993
2 45854  56.4498  41.5118 0055276 199.1707 339.5081  2.00565666 37558
GPS BIII-4  (PRN 14)    
1 46826U 20078A   25209.74963427  .00000034  00000+0  00000+0 0  9998
2 46826  54.0511 223.8972 0061648 203.0229 196.3137  2.00558745 35026
GPS BIII-5  (PRN 11)    
1 48859U 21054A   25210.50068714 -.00000108  00000+0  00000+0 0  9995
2 48859  55.3034 345.4216 0021433 226.0197 186.7440  2.00561276 30283
GPS BIII-6  (PRN 28)    
1 55268U 23009A   25210.12017622  .00000033  00000+0  00000+0 0  9995
2 55268  55.0987 161.2096 0003835 336.0923 201.8023  2.00566165 18761
GPS BIII-7  (PRN 01)    
1 62339U 24242A   25209.76688402 -.00000110  00000+0  00000+0 0  9997
2 62339  54.9637 347.2859 0006327 347.2980  11.5956  2.00559403  4760
GPS BIII-8  (PRN 21)    
1 64202U 25116A   25207.25739021 -.00000070  00000+0  00000+0 0  9990
2 64202  55.0021  44.2715 0001372 303.9443 233.2314  2.00568175  1330
